[Satellite]
VERSION=1.1
NAME=GSAT0215 (PRN E21)
NICKNAME=GSAT0215 (PRN E21)
TLE1=1 43055U 17079A   18020.38087360 -.00000030  00000-0  00000-0 0  9991
TLE2=2 43055  56.9613 305.8570 0002694 230.8390 129.1790  1.69744652   657
